{
  "links" : {
    "next" : "https://api.nasa.gov/neo/rest/v1/feed?start_date=2006-09-23&end_date=2006-09-23&detailed=true&api_key=t0TVs3DtDT2H8Oy2Zy8m2eVrNsAVKAexjcZXUckd",
    "prev" : "https://api.nasa.gov/neo/rest/v1/feed?start_date=2006-09-21&end_date=2006-09-21&detailed=true&api_key=t0TVs3DtDT2H8Oy2Zy8m2eVrNsAVKAexjcZXUckd",
    "self" : "https://api.nasa.gov/neo/rest/v1/feed?start_date=2006-09-22&end_date=2006-09-22&detailed=true&api_key=t0TVs3DtDT2H8Oy2Zy8m2eVrNsAVKAexjcZXUckd"
  },
  "element_count" : 10,
  "near_earth_objects" : {
    "2006-09-22" : [ {
      "links" : {
        "self" : "https://api.nasa.gov/neo/rest/v1/neo/3346474?api_key=t0TVs3DtDT2H8Oy2Zy8m2eVrNsAVKAexjcZXUckd"
      },
      "neo_reference_id" : "3346474",
      "name" : "(2006 SM198)",
      "nasa_jpl_url" : "http://ssd.jpl.nasa.gov/sbdb.cgi?sstr=3346474",
      "absolute_magnitude_h" : 21.6,
      "estimated_diameter" : {
        "kilometers" : {
          "estimated_diameter_min" : 0.1272198785,
          "estimated_diameter_max" : 0.2844722965
        },
        "meters" : {
          "estimated_diameter_min" : 127.2198785394,
          "estimated_diameter_max" : 284.4722965033
        },
        "miles" : {
          "estimated_diameter_min" : 0.0790507431,
          "estimated_diameter_max" : 0.1767628354
        },
        "feet" : {
          "estimated_diameter_min" : 417.3880663071,
          "estimated_diameter_max" : 933.3080892598
        }
      },
      "is_potentially_hazardous_asteroid" : false,
      "close_approach_data" : [ {
        "close_approach_date" : "2006-09-22",
        "epoch_date_close_approach" : 1158908400000,
        "relative_velocity" : {
          "kilometers_per_second" : "9.9149586636",
          "kilometers_per_hour" : "35693.8511888133",
          "miles_per_hour" : "22178.7710345157"
        },
        "miss_distance" : {
          "astronomical" : "0.1524954144",
          "lunar" : "59.3207168579",
          "kilometers" : "22812990",
          "miles" : "14175334"
        },
        "orbiting_body" : "Earth"
      } ],
      "orbital_data" : {
        "orbit_id" : "15",
        "orbit_determination_date" : "2017-04-06 09:08:00",
        "orbit_uncertainty" : "6",
        "minimum_orbit_intersection" : ".100461",
        "jupiter_tisserand_invariant" : "3.317",
        "epoch_osculation" : "2458000.5",
        "eccentricity" : ".5350858034166772",
        "semi_major_axis" : "2.365922594215145",
        "inclination" : "11.10957231829545",
        "ascending_node_longitude" : "359.1507905302618",
        "orbital_period" : "1329.227214669799",
        "perihelion_distance" : "1.099951002067865",
        "perihelion_argument" : "345.7221000245898",
        "aphelion_distance" : "3.631894186362425",
        "perihelion_time" : "2457988.869305999422",
        "mean_anomaly" : "3.149988048693583",
        "mean_motion" : ".2708340575839246",
        "equinox" : "J2000"
      }
    }, {
      "links" : {
        "self" : "https://api.nasa.gov/neo/rest/v1/neo/2066063?api_key=t0TVs3DtDT2H8Oy2Zy8m2eVrNsAVKAexjcZXUckd"
      },
      "neo_reference_id" : "2066063",
      "name" : "66063 (1998 RO1)",
      "nasa_jpl_url" : "http://ssd.jpl.nasa.gov/sbdb.cgi?sstr=2066063",
      "absolute_magnitude_h" : 18.1,
      "estimated_diameter" : {
        "kilometers" : {
          "estimated_diameter_min" : 0.6376097899,
          "estimated_diameter_max" : 1.4257388333
        },
        "meters" : {
          "estimated_diameter_min" : 637.6097898754,
          "estimated_diameter_max" : 1425.7388332807
        },
        "miles" : {
          "estimated_diameter_min" : 0.3961922327,
          "estimated_diameter_max" : 0.8859127646
        },
        "feet" : {
          "estimated_diameter_min" : 2091.8957030147,
          "estimated_diameter_max" : 4677.6209937807
        }
      },
      "is_potentially_hazardous_asteroid" : false,
      "close_approach_data" : [ {
        "close_approach_date" : "2006-09-22",
        "epoch_date_close_approach" : 1158908400000,
        "relative_velocity" : {
          "kilometers_per_second" : "28.3620078267",
          "kilometers_per_hour" : "102103.2281762525",
          "miles_per_hour" : "63442.9753076276"
        },
        "miss_distance" : {
          "astronomical" : "0.1684406124",
          "lunar" : "65.523399353",
          "kilometers" : "25198356",
          "miles" : "15657533"
        },
        "orbiting_body" : "Earth"
      } ],
      "orbital_data" : {
        "orbit_id" : "120",
        "orbit_determination_date" : "2017-04-06 09:28:54",
        "orbit_uncertainty" : "0",
        "minimum_orbit_intersection" : ".0920815",
        "jupiter_tisserand_invariant" : "5.810",
        "epoch_osculation" : "2458000.5",
        "eccentricity" : ".7200434971207683",
        "semi_major_axis" : ".9909675638965778",
        "inclination" : "22.67803717390146",
        "ascending_node_longitude" : "351.8751141992348",
        "orbital_period" : "360.3193506060588",
        "perihelion_distance" : ".2774278136552375",
        "perihelion_argument" : "151.1313673774323",
        "aphelion_distance" : "1.704507314137918",
        "perihelion_time" : "2458011.535810189743",
        "mean_anomaly" : "348.9739708355243",
        "mean_motion" : ".9991137012055511",
        "equinox" : "J2000"
      }
    }, {
      "links" : {
        "self" : "https://api.nasa.gov/neo/rest/v1/neo/3256739?api_key=t0TVs3DtDT2H8Oy2Zy8m2eVrNsAVKAexjcZXUckd"
      },
      "neo_reference_id" : "3256739",
      "name" : "(2004 TK14)",
      "nasa_jpl_url" : "http://ssd.jpl.nasa.gov/sbdb.cgi?sstr=3256739",
      "absolute_magnitude_h" : 20.1,
      "estimated_diameter" : {
        "kilometers" : {
          "estimated_diameter_min" : 0.2538370294,
          "estimated_diameter_max" : 0.5675968529
        },
        "meters" : {
          "estimated_diameter_min" : 253.8370293645,
          "estimated_diameter_max" : 567.5968528656
        },
        "miles" : {
          "estimated_diameter_min" : 0.1577269688,
          "estimated_diameter_max" : 0.3526882241
        },
        "feet" : {
          "estimated_diameter_min" : 832.7986794202,
          "estimated_diameter_max" : 1862.1944587557
        }
      },
      "is_potentially_hazardous_asteroid" : false,
      "close_approach_data" : [ {
        "close_approach_date" : "2006-09-22",
        "epoch_date_close_approach" : 1158908400000,
        "relative_velocity" : {
          "kilometers_per_second" : "6.4778561379",
          "kilometers_per_hour" : "23320.2820962864",
          "miles_per_hour" : "14490.3163947731"
        },
        "miss_distance" : {
          "astronomical" : "0.4828550134",
          "lunar" : "187.8305969238",
          "kilometers" : "72234080",
          "miles" : "44884180"
        },
        "orbiting_body" : "Earth"
      } ],
      "orbital_data" : {
        "orbit_id" : "19",
        "orbit_determination_date" : "2017-04-06 09:11:59",
        "orbit_uncertainty" : "1",
        "minimum_orbit_intersection" : ".307314",
        "jupiter_tisserand_invariant" : "4.279",
        "epoch_osculation" : "2458000.5",
        "eccentricity" : ".2349307073742521",
        "semi_major_axis" : "1.620393042576359",
        "inclination" : "10.21845850725357",
        "ascending_node_longitude" : "357.7300415025319",
        "orbital_period" : "753.4058387368392",
        "perihelion_distance" : "1.239712958859579",
        "perihelion_argument" : "71.93795221688076",
        "aphelion_distance" : "2.00107312629314",
        "perihelion_time" : "2457878.934890570701",
        "mean_anomaly" : "58.08747045008484",
        "mean_motion" : ".4778301169042919",
        "equinox" : "J2000"
      }
    } ]
  }
}